0 PEGASUS R/B
1 31305U 07015B   13282.41791733  .00002471  00000-0  22414-3 0  1369
2 31305 097.9149 044.8978 0013080 049.6996 350.9644 14.96207801352018
0 PEGASUS R/B
1 31305U 07015B   13283.42106667  .00002435  00000-0  22098-3 0  1376
2 31305 097.9152 045.9117 0013052 046.6601 353.9721 14.96211919352168
0 PEGASUS R/B
1 31305U 07015B   13284.42522422  .00003114  00000-0  28102-3 0  1386
2 31305 097.9141 046.9267 0013101 043.3040 002.7490 14.96213557352318
0 PEGASUS R/B
1 31305U 07015B   13285.42801801  .00002944  00000-0  26596-3 0  1394
2 31305 097.9145 047.9403 0013092 040.1537 003.9896 14.96218638352464
0 PEGASUS R/B
1 31305U 07015B   13286.43044753  .00002927  00000-0  26446-3 0  1408
2 31305 097.9151 048.9536 0013049 037.0484 003.2426 14.96223768352616
0 PEGASUS R/B
1 31305U 07015B   13287.43357341  .00003197  00000-0  28831-3 0  1410
2 31305 097.9158 049.9677 0013006 033.8029 006.4039 14.96229425352769
0 PEGASUS R/B
1 31305U 07015B   13288.78737197  .00002978  00000-0  26886-3 0  1425
2 31305 097.9166 051.3365 0012932 029.3383 098.5232 14.96242008352960
0 PEGASUS R/B
1 31305U 07015B   13290.11713810  .00002978  00000-0  26880-3 0  1436
2 31305 097.9171 052.6812 0012847 024.7694 061.4326 14.96250494353160
0 PEGASUS R/B
1 31305U 07015B   13291.44641619  .00002360  00000-0  21408-3 0  1447
2 31305 097.9172 054.0256 0012750 019.9540 021.9997 14.96259291353369
0 PEGASUS R/B
1 31305U 07015B   13292.44964005  .00002323  00000-0  21082-3 0  1453
2 31305 097.9171 055.0401 0012676 016.2795 026.2433 14.96263793353512
0 PEGASUS R/B
1 31305U 07015B   13293.45262558  .00002511  00000-0  22738-3 0  1468
2 31305 097.9168 056.0545 0012591 012.5606 029.2658 14.96267791353664
0 PEGASUS R/B
1 31305U 07015B   13294.45573573  .00002598  00000-0  23511-3 0  1477
2 31305 097.9164 057.0689 0012509 008.8612 032.9543 14.96271287353810
0 PEGASUS R/B
1 31305U 07015B   13295.45886097  .00002867  00000-0  25886-3 0  1483
2 31305 097.9160 058.0833 0012418 005.1174 036.7816 14.96275045353967
